[{"OBJECT_NAME":"LYNK TOWER 5","OBJECT_ID":"2024-043Z","EPOCH":"2026-03-09T22:11:51.175104","MEAN_MOTION":15.29454506,"ECCENTRICITY":0.00104056,"INCLINATION":97.5458,"RA_OF_ASC_NODE":204.7305,"ARG_OF_PERICENTER":234.6422,"MEAN_ANOMALY":125.3846,"EPHEMERIS_TYPE":0,"CLASSIFICATION_TYPE":"U","NORAD_CAT_ID":59121,"ELEMENT_SET_NO":999,"REV_AT_EPOCH":11186,"BSTAR":0.00031901545,"MEAN_MOTION_DOT":9.048e-5,"MEAN_MOTION_DDOT":0},{"OBJECT_NAME":"STARLINK-32416","OBJECT_ID":"2024-187R","EPOCH":"2026-03-09T23:13:24.880512","MEAN_MOTION":15.30191727,"ECCENTRICITY":0.00011293,"INCLINATION":53.1604,"RA_OF_ASC_NODE":48.291,"ARG_OF_PERICENTER":72.6849,"MEAN_ANOMALY":287.4276,"EPHEMERIS_TYPE":0,"CLASSIFICATION_TYPE":"U","NORAD_CAT_ID":61589,"ELEMENT_SET_NO":999,"REV_AT_EPOCH":7934,"BSTAR":5.3882708e-5,"MEAN_MOTION_DOT":1.237e-5,"MEAN_MOTION_DDOT":0}]
